[{"OBJECT_NAME":"ISS (ZARYA)","OBJECT_ID":"1998-067A","EPOCH":"2026-03-09T16:57:57.785184","MEAN_MOTION":15.485472,"ECCENTRICITY":0.000802,"INCLINATION":51.6323,"RA_OF_ASC_NODE":72.271,"ARG_OF_PERICENTER":174.6781,"MEAN_ANOMALY":185.4294,"EPHEMERIS_TYPE":0,"CLASSIFICATION_TYPE":"U","NORAD_CAT_ID":25544,"ELEMENT_SET_NO":999,"REV_AT_EPOCH":55633,"BSTAR":0.0001551,"MEAN_MOTION_DOT":7.976e-5,"MEAN_MOTION_DDOT":0},{"OBJECT_NAME":"POISK","OBJECT_ID":"2009-060A","EPOCH":"2026-03-09T16:57:57.785184","MEAN_MOTION":15.485472,"ECCENTRICITY":0.000802,"INCLINATION":51.6323,"RA_OF_ASC_NODE":72.271,"ARG_OF_PERICENTER":174.6781,"MEAN_ANOMALY":185.4294,"EPHEMERIS_TYPE":0,"CLASSIFICATION_TYPE":"U","NORAD_CAT_ID":36086,"ELEMENT_SET_NO":999,"REV_AT_EPOCH":55606,"BSTAR":0.0001551,"MEAN_MOTION_DOT":7.976e-5,"MEAN_MOTION_DDOT":0},{"OBJECT_NAME":"CSS (TIANHE)","OBJECT_ID":"2021-035A","EPOCH":"2026-03-09T14:06:08.150112","MEAN_MOTION":15.60651211,"ECCENTRICITY":0.0006982,"INCLINATION":41.4666,"RA_OF_ASC_NODE":208.7841,"ARG_OF_PERICENTER":272.7102,"MEAN_ANOMALY":87.2938,"EPHEMERIS_TYPE":0,"CLASSIFICATION_TYPE":"U","NORAD_CAT_ID":48274,"ELEMENT_SET_NO":999,"REV_AT_EPOCH":27759,"BSTAR":0.00029943,"MEAN_MOTION_DOT":0.00025302,"MEAN_MOTION_DDOT":0},{"OBJECT_NAME":"ISS (NAUKA)","OBJECT_ID":"2021-066A","EPOCH":"2026-03-09T16:57:57.785184","MEAN_MOTION":15.485472,"ECCENTRICITY":0.000802,"INCLINATION":51.6323,"RA_OF_ASC_NODE":72.271,"ARG_OF_PERICENTER":174.6781,"MEAN_ANOMALY":185.4294,"EPHEMERIS_TYPE":0,"CLASSIFICATION_TYPE":"U","NORAD_CAT_ID":49044,"ELEMENT_SET_NO":999,"REV_AT_EPOCH":55610,"BSTAR":0.0001551,"MEAN_MOTION_DOT":7.976e-5,"MEAN_MOTION_DDOT":0},{"OBJECT_NAME":"FREGAT DEB","OBJECT_ID":"2011-037PF","EPOCH":"2026-03-09T20:16:28.495200","MEAN_MOTION":12.40178553,"ECCENTRICITY":0.0960001,"INCLINATION":51.6509,"RA_OF_ASC_NODE":300.2874,"ARG_OF_PERICENTER":59.7572,"MEAN_ANOMALY":309.4809,"EPHEMERIS_TYPE":0,"CLASSIFICATION_TYPE":"U","NORAD_CAT_ID":49271,"ELEMENT_SET_NO":999,"REV_AT_EPOCH":21271,"BSTAR":0.033214,"MEAN_MOTION_DOT":0.00023094,"MEAN_MOTION_DDOT":0},{"OBJECT_NAME":"CSS (WENTIAN)","OBJECT_ID":"2022-085A","EPOCH":"2026-03-09T14:06:08.150112","MEAN_MOTION":15.60651211,"ECCENTRICITY":0.0006982,"INCLINATION":41.4666,"RA_OF_ASC_NODE":208.7841,"ARG_OF_PERICENTER":272.7102,"MEAN_ANOMALY":87.2938,"EPHEMERIS_TYPE":0,"CLASSIFICATION_TYPE":"U","NORAD_CAT_ID":53239,"ELEMENT_SET_NO":999,"REV_AT_EPOCH":27732,"BSTAR":0.00029943,"MEAN_MOTION_DOT":0.00025302,"MEAN_MOTION_DDOT":0},{"OBJECT_NAME":"CSS (MENGTIAN)","OBJECT_ID":"2022-143A","EPOCH":"2026-03-09T14:06:08.150112","MEAN_MOTION":15.60651211,"ECCENTRICITY":0.0006982,"INCLINATION":41.4666,"RA_OF_ASC_NODE":208.7841,"ARG_OF_PERICENTER":272.7102,"MEAN_ANOMALY":87.2938,"EPHEMERIS_TYPE":0,"CLASSIFICATION_TYPE":"U","NORAD_CAT_ID":54216,"ELEMENT_SET_NO":999,"REV_AT_EPOCH":27729,"BSTAR":0.00029943,"MEAN_MOTION_DOT":0.00025302,"MEAN_MOTION_DDOT":0},{"OBJECT_NAME":"PROGRESS-MS 31","OBJECT_ID":"2025-146A","EPOCH":"2026-03-09T16:57:57.785184","MEAN_MOTION":15.485472,"ECCENTRICITY":0.000802,"INCLINATION":51.6323,"RA_OF_ASC_NODE":72.271,"ARG_OF_PERICENTER":174.6781,"MEAN_ANOMALY":185.4294,"EPHEMERIS_TYPE":0,"CLASSIFICATION_TYPE":"U","NORAD_CAT_ID":64751,"ELEMENT_SET_NO":999,"REV_AT_EPOCH":55614,"BSTAR":0.0001551,"MEAN_MOTION_DOT":7.976e-5,"MEAN_MOTION_DDOT":0},{"OBJECT_NAME":"TIANZHOU-9","OBJECT_ID":"2025-149A","EPOCH":"2026-03-09T14:06:08.150112","MEAN_MOTION":15.60651211,"ECCENTRICITY":0.0006982,"INCLINATION":41.4666,"RA_OF_ASC_NODE":208.7841,"ARG_OF_PERICENTER":272.7102,"MEAN_ANOMALY":87.2938,"EPHEMERIS_TYPE":0,"CLASSIFICATION_TYPE":"U","NORAD_CAT_ID":64786,"ELEMENT_SET_NO":999,"REV_AT_EPOCH":27730,"BSTAR":0.00029943,"MEAN_MOTION_DOT":0.00025302,"MEAN_MOTION_DDOT":0},{"OBJECT_NAME":"PROGRESS-MS 32","OBJECT_ID":"2025-204A","EPOCH":"2026-03-09T16:57:57.785184","MEAN_MOTION":15.485472,"ECCENTRICITY":0.000802,"INCLINATION":51.6323,"RA_OF_ASC_NODE":72.271,"ARG_OF_PERICENTER":174.6781,"MEAN_ANOMALY":185.4294,"EPHEMERIS_TYPE":0,"CLASSIFICATION_TYPE":"U","NORAD_CAT_ID":65586,"ELEMENT_SET_NO":999,"REV_AT_EPOCH":55626,"BSTAR":0.0001551,"MEAN_MOTION_DOT":7.976e-5,"MEAN_MOTION_DDOT":0},{"OBJECT_NAME":"CYGNUS NG-23","OBJECT_ID":"2025-208A","EPOCH":"2026-03-09T16:57:57.785184","MEAN_MOTION":15.485472,"ECCENTRICITY":0.000802,"INCLINATION":51.6323,"RA_OF_ASC_NODE":72.271,"ARG_OF_PERICENTER":174.6781,"MEAN_ANOMALY":185.4294,"EPHEMERIS_TYPE":0,"CLASSIFICATION_TYPE":"U","NORAD_CAT_ID":65616,"ELEMENT_SET_NO":999,"REV_AT_EPOCH":55630,"BSTAR":0.0001551,"MEAN_MOTION_DOT":7.976e-5,"MEAN_MOTION_DDOT":0},{"OBJECT_NAME":"ISS OBJECT XK","OBJECT_ID":"1998-067XK","EPOCH":"2026-03-09T00:12:34.522560","MEAN_MOTION":16.26334719,"ECCENTRICITY":0.00020465,"INCLINATION":51.6098,"RA_OF_ASC_NODE":49.3843,"ARG_OF_PERICENTER":160.9166,"MEAN_ANOMALY":199.1931,"EPHEMERIS_TYPE":0,"CLASSIFICATION_TYPE":"U","NORAD_CAT_ID":65731,"ELEMENT_SET_NO":999,"REV_AT_EPOCH":2679,"BSTAR":0.0012448899,"MEAN_MOTION_DOT":0.04180882,"MEAN_MOTION_DDOT":1.200013e-5},{"OBJECT_NAME":"YOTSUBA-KULOVER","OBJECT_ID":"1998-067XN","EPOCH":"2026-03-09T04:47:45.659328","MEAN_MOTION":15.80299933,"ECCENTRICITY":0.00056151,"INCLINATION":51.6212,"RA_OF_ASC_NODE":59.8333,"ARG_OF_PERICENTER":64.0479,"MEAN_ANOMALY":296.11,"EPHEMERIS_TYPE":0,"CLASSIFICATION_TYPE":"U","NORAD_CAT_ID":65941,"ELEMENT_SET_NO":999,"REV_AT_EPOCH":2342,"BSTAR":0.0011586137,"MEAN_MOTION_DOT":0.00228614,"MEAN_MOTION_DDOT":0},{"OBJECT_NAME":"E-KAGAKU-1","OBJECT_ID":"1998-067XQ","EPOCH":"2026-03-09T04:54:01.338624","MEAN_MOTION":15.79952839,"ECCENTRICITY":0.00059949,"INCLINATION":51.6231,"RA_OF_ASC_NODE":59.8799,"ARG_OF_PERICENTER":71.0576,"MEAN_ANOMALY":289.1075,"EPHEMERIS_TYPE":0,"CLASSIFICATION_TYPE":"U","NORAD_CAT_ID":65943,"ELEMENT_SET_NO":999,"REV_AT_EPOCH":2342,"BSTAR":0.0011367171,"MEAN_MOTION_DOT":0.00220564,"MEAN_MOTION_DDOT":0},{"OBJECT_NAME":"HRC MONOBLOCK CAMERA","OBJECT_ID":"1998-067XR","EPOCH":"2026-03-09T09:07:55.754688","MEAN_MOTION":15.62163367,"ECCENTRICITY":0.00036673,"INCLINATION":51.6279,"RA_OF_ASC_NODE":67.0928,"ARG_OF_PERICENTER":90.6396,"MEAN_ANOMALY":269.5018,"EPHEMERIS_TYPE":0,"CLASSIFICATION_TYPE":"U","NORAD_CAT_ID":66052,"ELEMENT_SET_NO":999,"REV_AT_EPOCH":2234,"BSTAR":0.00060520784,"MEAN_MOTION_DOT":0.0005407,"MEAN_MOTION_DDOT":0},{"OBJECT_NAME":"HTV-X1","OBJECT_ID":"2025-241A","EPOCH":"2026-03-09T10:46:14.833056","MEAN_MOTION":15.48542052,"ECCENTRICITY":0.00080269,"INCLINATION":51.6321,"RA_OF_ASC_NODE":73.5472,"ARG_OF_PERICENTER":173.5451,"MEAN_ANOMALY":186.5642,"EPHEMERIS_TYPE":0,"CLASSIFICATION_TYPE":"U","NORAD_CAT_ID":66174,"ELEMENT_SET_NO":999,"REV_AT_EPOCH":55447,"BSTAR":0.00015191697,"MEAN_MOTION_DOT":7.802e-5,"MEAN_MOTION_DDOT":0},{"OBJECT_NAME":"SZ-21 MODULE","OBJECT_ID":"2025-246C","EPOCH":"2026-03-08T17:40:24.022560","MEAN_MOTION":15.68463397,"ECCENTRICITY":0.00013651,"INCLINATION":41.4736,"RA_OF_ASC_NODE":209.2286,"ARG_OF_PERICENTER":296.9264,"MEAN_ANOMALY":63.1439,"EPHEMERIS_TYPE":0,"CLASSIFICATION_TYPE":"U","NORAD_CAT_ID":66515,"ELEMENT_SET_NO":999,"REV_AT_EPOCH":1792,"BSTAR":0.0004111263,"MEAN_MOTION_DOT":0.00047754,"MEAN_MOTION_DDOT":0}]
