ISS (ZARYA)             
1 25544U 98067A   26068.70691881  .00007976  00000+0  15510-3 0  9995
2 25544  51.6323  72.2710 0008020 174.6781 185.4294 15.48547200556336
POISK                   
1 36086U 09060A   26068.70691881  .00007976  00000+0  15510-3 0  9993
2 36086  51.6323  72.2710 0008020 174.6781 185.4294 15.48547200556069
CSS (TIANHE)            
1 48274U 21035A   26068.58759433  .00025302  00000+0  29943-3 0  9993
2 48274  41.4666 208.7841 0006982 272.7102  87.2938 15.60651211277595
ISS (NAUKA)             
1 49044U 21066A   26068.70691881  .00007976  00000+0  15510-3 0  9991
2 49044  51.6323  72.2710 0008020 174.6781 185.4294 15.48547200556102
FREGAT DEB              
1 49271U 11037PF  26068.84477425  .00023094  00000+0  33214-1 0  9999
2 49271  51.6509 300.2874 0960001  59.7572 309.4809 12.40178553212718
CSS (WENTIAN)           
1 53239U 22085A   26068.58759433  .00025302  00000+0  29943-3 0  9996
2 53239  41.4666 208.7841 0006982 272.7102  87.2938 15.60651211277323
CSS (MENGTIAN)          
1 54216U 22143A   26068.58759433  .00025302  00000+0  29943-3 0  9997
2 54216  41.4666 208.7841 0006982 272.7102  87.2938 15.60651211277295
PROGRESS-MS 31          
1 64751U 25146A   26068.70691881  .00007976  00000+0  15510-3 0  9996
2 64751  51.6323  72.2710 0008020 174.6781 185.4294 15.48547200556148
TIANZHOU-9              
1 64786U 25149A   26068.58759433  .00025302  00000+0  29943-3 0  9999
2 64786  41.4666 208.7841 0006982 272.7102  87.2938 15.60651211277300
PROGRESS-MS 32          
1 65586U 25204A   26068.70691881  .00007976  00000+0  15510-3 0  9998
2 65586  51.6323  72.2710 0008020 174.6781 185.4294 15.48547200556268
CYGNUS NG-23            
1 65616U 25208A   26068.70691881  .00007976  00000+0  15510-3 0  9996
2 65616  51.6323  72.2710 0008020 174.6781 185.4294 15.48547200556307
ISS OBJECT XK           
1 65731U 98067XK  26068.00873290  .04180882  12000-4  12449-2 0  9993
2 65731  51.6098  49.3843 0002046 160.9166 199.1931 16.26334719 26794
YOTSUBA-KULOVER         
1 65941U 98067XN  26068.19983402  .00228614  00000+0  11586-2 0  9998
2 65941  51.6212  59.8333 0005615  64.0479 296.1100 15.80299933 23421
E-KAGAKU-1              
1 65943U 98067XQ  26068.20418216  .00220564  00000+0  11367-2 0  9991
2 65943  51.6231  59.8799 0005994  71.0576 289.1075 15.79952839 23428
HRC MONOBLOCK CAMERA    
1 66052U 98067XR  26068.38050642  .00054070  00000+0  60521-3 0  9991
2 66052  51.6279  67.0928 0003667  90.6396 269.5018 15.62163367 22340
HTV-X1                  
1 66174U 25241A   26068.44878279  .00007802  00000+0  15192-3 0  9996
2 66174  51.6321  73.5472 0008026 173.5451 186.5642 15.48542052554477
SZ-21 MODULE            
1 66515U 25246C   26067.73638915  .00047754  00000+0  41113-3 0  9994
2 66515  41.4736 209.2286 0001365 296.9264  63.1439 15.68463397 17929
